0 FENGYUN 1C DEB
1 30571U 99025ALM 13280.93177862  .00000395  00000-0  26019-3 0   458
2 30571 099.0588 272.1798 0022536 122.8041 299.3732 14.07552838342747
0 FENGYUN 1C DEB
1 30571U 99025ALM 13283.20608146  .00000185  00000-0  13586-3 0   468
2 30571 099.0587 274.4603 0022619 116.6177 303.5332 14.07557219343067
0 FENGYUN 1C DEB
1 30571U 99025ALM 13285.49254567  .00000060  00000-0  62166-4 0   477
2 30571 099.0585 276.7530 0022664 110.4873 009.2606 14.07559239343387
0 FENGYUN 1C DEB
1 30571U 99025ALM 13287.83798968  .00000214  00000-0  15294-3 0   486
2 30571 099.0585 279.1045 0022656 104.2824 013.7835 14.07559838343719
0 FENGYUN 1C DEB
1 30571U 99025ALM 13289.95782086  .00000397  00000-0  26170-3 0   493
2 30571 099.0588 281.2296 0022613 098.6916 315.1042 14.07559739344018
0 FENGYUN 1C DEB
1 30571U 99025ALM 13292.52943640  .00000613  00000-0  38913-3 0   506
2 30571 099.0595 283.8076 0022591 091.9111 025.6474 14.07560588344373
0 FENGYUN 1C DEB
1 30571U 99025ALM 13294.86514463  .00000600  00000-0  38147-3 0   518
2 30571 099.0597 286.1495 0022602 085.6639 340.9253 14.07564211344706
